[{"OBJECT_NAME":"NOAA 18","OBJECT_ID":"2005-018A","EPOCH":"2026-04-09T04:29:53.629728","MEAN_MOTION":14.13717381,"ECCENTRICITY":0.0013955,"INCLINATION":98.8119,"RA_OF_ASC_NODE":179.8617,"ARG_OF_PERICENTER":351.57,"MEAN_ANOMALY":8.5236,"EPHEMERIS_TYPE":0,"CLASSIFICATION_TYPE":"U","NORAD_CAT_ID":28654,"ELEMENT_SET_NO":999,"REV_AT_EPOCH":7656,"BSTAR":4.6531596e-5,"MEAN_MOTION_DOT":4.4e-7,"MEAN_MOTION_DDOT":0},{"OBJECT_NAME":"NOAA 19","OBJECT_ID":"2009-005A","EPOCH":"2026-04-09T05:52:34.678848","MEAN_MOTION":14.13463116,"ECCENTRICITY":0.0013113,"INCLINATION":98.9554,"RA_OF_ASC_NODE":170.059,"ARG_OF_PERICENTER":221.9108,"MEAN_ANOMALY":138.1061,"EPHEMERIS_TYPE":0,"CLASSIFICATION_TYPE":"U","NORAD_CAT_ID":33591,"ELEMENT_SET_NO":999,"REV_AT_EPOCH":88474,"BSTAR":5.2321211e-5,"MEAN_MOTION_DOT":5.3e-7,"MEAN_MOTION_DDOT":0},{"OBJECT_NAME":"SUOMI NPP","OBJECT_ID":"2011-061A","EPOCH":"2026-04-09T06:19:54.056640","MEAN_MOTION":14.1950235,"ECCENTRICITY":0.00022347,"INCLINATION":98.7906,"RA_OF_ASC_NODE":40.6295,"ARG_OF_PERICENTER":134.8111,"MEAN_ANOMALY":225.3247,"EPHEMERIS_TYPE":0,"CLASSIFICATION_TYPE":"U","NORAD_CAT_ID":37849,"ELEMENT_SET_NO":999,"REV_AT_EPOCH":74866,"BSTAR":6.3074576e-5,"MEAN_MOTION_DOT":8.9e-7,"MEAN_MOTION_DDOT":0},{"OBJECT_NAME":"NOAA 20 (JPSS-1)","OBJECT_ID":"2017-073A","EPOCH":"2026-04-09T06:40:11.155296","MEAN_MOTION":14.1954448,"ECCENTRICITY":0.00021107,"INCLINATION":98.7726,"RA_OF_ASC_NODE":39.3678,"ARG_OF_PERICENTER":96.2838,"MEAN_ANOMALY":263.8578,"EPHEMERIS_TYPE":0,"CLASSIFICATION_TYPE":"U","NORAD_CAT_ID":43013,"ELEMENT_SET_NO":999,"REV_AT_EPOCH":43469,"BSTAR":6.4402913e-5,"MEAN_MOTION_DOT":9.2e-7,"MEAN_MOTION_DDOT":0}]
