NOAA 18                 
1 28654U 05018A   26099.18742627  .00000044  00000+0  46532-4 0  9993
2 28654  98.8119 179.8617 0013955 351.5700   8.5236 14.13717381 76560
NOAA 19                 
1 33591U 09005A   26099.24484582  .00000053  00000+0  52321-4 0  9992
2 33591  98.9554 170.0590 0013113 221.9108 138.1061 14.13463116884748
SUOMI NPP               
1 37849U 11061A   26099.26382010  .00000089  00000+0  63075-4 0  9999
2 37849  98.7906  40.6295 0002234 134.8111 225.3247 14.19502350748664
NOAA 20 (JPSS-1)        
1 43013U 17073A   26099.27790689  .00000092  00000+0  64403-4 0  9994
2 43013  98.7726  39.3678 0002110  96.2838 263.8578 14.19544480434693
